[{"OBJECT_NAME":"STARLINK-34087","OBJECT_ID":"2025-102C","EPOCH":"2026-03-09T13:10:45.494688","MEAN_MOTION":14.98330478,"ECCENTRICITY":0.00033669,"INCLINATION":70.001,"RA_OF_ASC_NODE":114.7097,"ARG_OF_PERICENTER":269.4069,"MEAN_ANOMALY":90.6704,"EPHEMERIS_TYPE":0,"CLASSIFICATION_TYPE":"U","NORAD_CAT_ID":64024,"ELEMENT_SET_NO":999,"REV_AT_EPOCH":4582,"BSTAR":4.3702647e-5,"MEAN_MOTION_DOT":4.28e-6,"MEAN_MOTION_DDOT":0},{"OBJECT_NAME":"COSMOS 839 DEB","OBJECT_ID":"1976-067BX","EPOCH":"2026-03-08T17:24:58.669056","MEAN_MOTION":13.01998819,"ECCENTRICITY":0.08994539,"INCLINATION":65.7348,"RA_OF_ASC_NODE":295.8622,"ARG_OF_PERICENTER":7.0167,"MEAN_ANOMALY":354.2512,"EPHEMERIS_TYPE":0,"CLASSIFICATION_TYPE":"U","NORAD_CAT_ID":20503,"ELEMENT_SET_NO":999,"REV_AT_EPOCH":65455,"BSTAR":0.00039757228,"MEAN_MOTION_DOT":8.34e-6,"MEAN_MOTION_DDOT":0}]
